OBJECT_NAME,OBJECT_ID,EPOCH,MEAN_MOTION,ECCENTRICITY,INCLINATION,RA_OF_ASC_NODE,ARG_OF_PERICENTER,MEAN_ANOMALY,EPHEMERIS_TYPE,CLASSIFICATION_TYPE,NORAD_CAT_ID,ELEMENT_SET_NO,REV_AT_EPOCH,BSTAR,MEAN_MOTION_DOT,MEAN_MOTION_DDOT
OSCAR 7 (AO-7),1974-089B,2026-07-16T06:28:58.258272,12.53698595,.0012657,101.9906,210.8198,76.3529,349.4249,0,U,7530,999,36416,.45074448E-4,-.39E-6,0
PHASE 3B (AO-10),1983-058B,2026-07-13T02:29:46.528800,2.05872336,.60022234,25.9345,215.2934,122.7887,309.2966,0,U,14129,999,29602,0,-.187E-5,0
UOSAT 2 (UO-11),1984-021B,2026-07-16T10:01:53.085792,14.90850498,.00092538,97.8077,162.6705,88.1035,272.1243,0,U,14781,999,26148,.54958522E-4,.486E-5,0
LUSAT (LO-19),1990-005G,2026-07-16T08:17:05.749152,14.34130921,.0012572,98.8847,219.9533,118.2837,241.9617,0,U,20442,999,90657,.2710826E-4,.29E-6,0
EYESAT A (AO-27),1993-061C,2026-07-16T03:47:34.094400,14.30949207,.00087089,98.6867,264.5590,23.1959,336.9615,0,U,22825,999,71114,.31913307E-4,.39E-6,0
ITAMSAT (IO-26),1993-061D,2026-07-16T11:28:46.041024,14.31376879,.00088567,98.6815,264.7994,5.6610,354.4672,0,U,22826,999,71150,.31006788E-4,.38E-6,0
RADIO ROSTO (RS15),1994-085A,2026-07-16T13:27:29.486016,11.27583515,.01569698,64.8148,255.7121,358.4590,1.5832,0,U,23439,999,29921,.52564463E-4,-.41E-6,0
JAS-2 (FO-29),1996-046B,2026-07-16T12:20:59.876160,13.53275767,.03502986,98.5219,42.3665,20.5227,340.9595,0,U,24278,999,47713,.25869302E-4,-.9E-7,0
TECHSAT 1B (GO-32),1998-043D,2026-07-16T11:54:27.366912,14.24433518,.00022216,99.0086,190.9963,112.7414,247.3999,0,U,25397,999,45550,.22627718E-4,.6E-7,0
ISS (ZARYA),1998-067A,2026-07-16T08:19:43.906080,15.49022210,.00067534,51.6312,155.7848,302.1556,57.8777,0,U,25544,999,57627,.70974689E-4,.3465E-4,0
PCSAT (NO-44),2001-043C,2026-07-16T06:50:01.802112,14.31965226,.00059123,67.0495,169.0114,266.7089,93.3336,0,U,26931,999,29461,.370454E-4,.16E-6,0
SAUDISAT 1C (SO-50),2002-058C,2026-07-16T13:19:30.765216,14.83099820,.00744826,64.5519,38.1171,257.0171,102.2611,0,U,27607,999,26881,.59872004E-4,.354E-5,0
CUTE-1 (CO-55),2003-031E,2026-07-16T11:18:06.940224,14.24352009,.00108491,98.6744,205.6621,99.3803,260.8604,0,U,27844,999,19584,.74880532E-4,.129E-5,0
CUBESAT XI-IV (CO-57),2003-031J,2026-07-16T11:22:41.501280,14.23634953,.00105874,98.6775,205.3542,115.9860,244.2410,0,U,27848,999,19554,.65296624E-4,.105E-5,0
MOZHAETS 4 (RS22),2003-042A,2026-07-16T14:53:57.605568,14.73514844,.00113423,98.3468,22.8125,168.7838,279.6921,0,U,27939,999,21988,.48379459E-4,.261E-5,0
CUBESAT XI-V,2005-043F,2026-07-16T09:57:31.743072,14.72703928,.00152896,98.3016,353.6566,111.6575,248.6262,0,U,28895,999,10605,.10577866E-3,.623E-5,0
CUTE-1.7+APD II (CO-65),2008-021C,2026-07-16T14:42:32.166720,15.09708646,.00069145,97.8297,179.6522,293.8449,66.2054,0,U,32785,999,98963,.1534375E-3,.2406E-4,0
SEEDS II (CO-66),2008-021J,2026-07-16T12:05:34.599552,15.33693982,.0003211,97.7523,196.8243,153.5241,206.6165,0,U,32791,999,99178,.32532784E-3,.10519E-3,0
YUBILEINY (RS30),2008-025A,2026-07-16T15:12:50.435712,12.43180523,.00186331,82.5062,337.1213,245.6137,114.2999,0,U,32953,999,82335,-.20754024E-3,-.19E-6,0
KKS-1 (KISEKI),2009-002H,2026-07-16T14:29:19.129632,14.83191013,.00075549,98.1173,120.5120,184.0960,176.0193,0,U,33499,999,94055,.7606528E-4,.565E-5,0
SWISSCUBE,2009-051B,2026-07-16T04:15:03.260448,14.62531689,.00078879,98.4006,105.5678,116.4429,243.7582,0,U,35932,999,89339,.97132642E-4,.443E-5,0
BEESAT-1,2009-051C,2026-07-16T06:29:02.873760,14.61762755,.00061905,98.3933,105.2367,126.9816,233.1952,0,U,35933,999,89343,.83466794E-4,.367E-5,0
ITUPSAT1,2009-051E,2026-07-16T05:13:59.908800,14.60479538,.00081551,98.4016,104.3446,140.2213,219.9586,0,U,35935,999,89297,.7971E-4,.338E-5,0
XIWANG-1 (HOPE-1),2009-072B,2026-07-16T13:54:32.209344,13.16439199,.00075785,100.4039,150.9444,161.7426,198.3960,0,U,36122,999,79687,-.67833921E-3,-.303E-5,0
O/OREOS (USA 219),2010-062C,2026-07-16T11:03:25.243776,14.93854221,.00140315,71.9698,14.0214,2.6006,357.5235,0,U,37224,999,12101,.98138959E-4,.98E-5,0
JUGNU,2011-058B,2026-07-16T04:15:50.795136,14.13783599,.00185921,19.9596,132.2939,37.2294,97.4128,0,U,37839,999,76313,.36708441E-4,.337E-5,0
SRMSAT,2011-058D,2026-07-16T12:02:44.649024,14.11581255,.00117137,19.9708,242.0370,165.5426,335.9764,0,U,37841,999,76196,.34086401E-4,.328E-5,0
STRAND-1,2013-009E,2026-07-16T10:28:10.915680,14.37179260,.00094689,98.3935,16.9527,137.7246,222.4672,0,U,39090,999,70126,.51461521E-4,.11E-5,0
ZACUBE-1 (TSHEPISOSAT),2013-066B,2026-07-16T11:13:23.251872,15.01331708,.00440773,97.8007,159.9484,151.1384,209.2292,0,U,39417,999,68512,.90932489E-4,.113E-4,0
GOMX-1,2013-066Q,2026-07-16T14:25:33.688704,14.69544590,.01281265,97.6463,36.2075,343.6834,16.0265,0,U,39430,999,67423,.10432507E-3,.649E-5,0
